NORAD_CAT_ID,OBJECT_NAME,OBJECT_TYPE,EPOCH,MEAN_MOTION,ECCENTRICITY,INCLINATION,RA_OF_ASC_NODE,ARG_OF_PERICENTER,MEAN_ANOMALY,BSTAR,MEAN_MOTION_DOT,MEAN_MOTION_DDOT,TLE_LINE0,TLE_LINE1,TLE_LINE2,SEMIMAJOR_AXIS,PERIOD,APOGEE,PERIGEE,DECAYED
55752.0,STARLINK-5613,PAYLOAD,2024-03-06 19:11:14,14.98331886,0.000308,69.9983,292.1977,271.615,88.4656,-7.486e-05,-9.86e-06,0.0,0 STARLINK-5613,1 55752U 23028M   24066.79947064 -.00000986  00000-0 -74860-4 0  9997,2 55752  69.9983 292.1977 0003080 271.6150  88.4656 14.98331886 56267,6950.187,96.107,574.193,569.911,0.0
55752.0,STARLINK-5613,PAYLOAD,2024-03-07 14:24:51,14.98323831,0.0002859,69.9986,290.1772,271.832,88.2512,9.2758e-05,1.014e-05,0.0,0 STARLINK-5613,1 55752U 23028M   24067.60059035  .00001014  00000-0  92758-4 0  9997,2 55752  69.9986 290.1772 0002859 271.8320  88.2512 14.98323831 56388,6950.212,96.107,574.064,570.09,0.0
55752.0,STARLINK-5613,PAYLOAD,2024-03-08 00:01:39,14.98326798,0.0002825,69.9986,289.1672,271.8178,88.2658,0.00011476,1.276e-05,0.0,0 STARLINK-5613,1 55752U 23028M   24068.00114900  .00001276  00000-0  11476-3 0  9992,2 55752  69.9986 289.1672 0002825 271.8178  88.2658 14.98326798 56442,6950.203,96.107,574.031,570.104,0.0
55752.0,STARLINK-5613,PAYLOAD,2024-03-08 14:26:52,14.98330349,0.0002753,69.9986,287.6526,271.3258,88.7585,-1.0592e-05,-2.19e-06,0.0,0 STARLINK-5613,1 55752U 23028M   24068.60199113 -.00000219  00000-0 -10592-4 0  9994,2 55752  69.9986 287.6526 0002753 271.3258  88.7585 14.98330349 56538,6950.192,96.107,573.97,570.143,0.0
55752.0,STARLINK-5613,PAYLOAD,2024-03-08 20:51:24,14.98330928,0.0002758,69.9986,286.9793,271.0663,89.018,-4.0764e-06,-1.42e-06,0.0,0 STARLINK-5613,1 55752U 23028M   24068.86903025 -.00000142  00000-0 -40764-5 0  9997,2 55752  69.9986 286.9793 0002758 271.0663  89.0180 14.98330928 56570,6950.19,96.107,573.972,570.138,0.0
55752.0,STARLINK-5613,PAYLOAD,2024-03-09 00:03:40,14.98329069,0.0003397,69.9985,286.6422,272.6024,87.4746,-1.7057e-05,-2.97e-06,0.0,0 STARLINK-5613,1 55752U 23028M   24069.00255163 -.00000297  00000-0 -17057-4 0  9996,2 55752  69.9985 286.6422 0003397 272.6024  87.4746 14.98329069 56599,6950.196,96.107,574.422,569.7,0.0
55752.0,STARLINK-5613,PAYLOAD,2024-03-09 08:04:22,14.9830947,0.0002912,69.9984,285.7995,273.4941,86.5885,-0.00022902,-2.823e-05,0.0,0 STARLINK-5613,1 55752U 23028M   24069.33637313 -.00002823  00000-0 -22902-3 0  9994,2 55752  69.9984 285.7995 0002912 273.4941  86.5885 14.98309470 56646,6950.256,96.108,574.145,570.097,0.0
55752.0,STARLINK-5613,PAYLOAD,2024-03-09 14:28:54,14.98310348,0.0003298,69.9984,285.1271,273.2957,86.7824,-0.00018268,-2.271e-05,0.0,0 STARLINK-5613,1 55752U 23028M   24069.60341291 -.00002271  00000-0 -18268-3 0  9998,2 55752  69.9984 285.1271 0003298 273.2957  86.7824 14.98310348 56685,6950.254,96.108,574.411,569.826,0.0
55752.0,STARLINK-5613,PAYLOAD,2024-03-10 00:05:42,14.98322266,0.0002969,69.9983,284.1178,277.6406,82.4416,-5.5048e-05,-7.5e-06,0.0,0 STARLINK-5613,1 55752U 23028M   24070.00396585 -.00000750  00000-0 -55048-4 0  9998,2 55752  69.9983 284.1178 0002969 277.6406  82.4416 14.98322266 56749,6950.217,96.107,574.145,570.018,0.0
55752.0,STARLINK-5613,PAYLOAD,2024-03-10 08:06:22,14.9832505,0.000299,69.9979,283.2756,276.4045,83.6774,9.2606e-07,-8.2e-07,0.0,0 STARLINK-5613,1 55752U 23028M   24070.33776391 -.00000082  00000-0  92606-6 0  9991,2 55752  69.9979 283.2756 0002990 276.4045  83.6774 14.98325050 56795,6950.208,96.107,574.151,569.995,0.0
55752.0,STARLINK-5613,PAYLOAD,2024-03-10 20:55:27,14.9832884,0.0003293,69.9985,281.9269,272.054,88.0242,6.1573e-05,6.42e-06,0.0,0 STARLINK-5613,1 55752U 23028M   24070.87184080  .00000642  00000-0  61573-4 0  9996,2 55752  69.9985 281.9269 0003293 272.0540  88.0242 14.98328840 56873,6950.196,96.107,574.35,569.773,0.0
55752.0,STARLINK-5613,PAYLOAD,2024-03-10 22:31:34,14.98335776,0.0003881,69.9983,281.7601,277.9648,82.1071,-3.5697e-05,-5.19e-06,0.0,0 STARLINK-5613,1 55752U 23028M   24070.93859889 -.00000519  00000-0 -35697-4 0  9992,2 55752  69.9983 281.7601 0003881 277.9648  82.1071 14.98335776 56887,6950.175,96.107,574.737,569.343,0.0
55752.0,STARLINK-5613,PAYLOAD,2024-03-11 00:07:43,14.98330192,0.0003657,69.9984,281.592,276.9985,83.0758,7.56e-05,8.09e-06,0.0,0 STARLINK-5613,1 55752U 23028M   24071.00535992  .00000809  00000-0  75600-4 0  9995,2 55752  69.9984 281.5920 0003657 276.9985  83.0758 14.98330192 56894,6950.192,96.107,574.599,569.516,0.0
55752.0,STARLINK-5613,PAYLOAD,2024-03-12 00:09:43,14.98337293,0.0003519,69.9975,279.0655,272.0205,88.0551,0.000128,1.435e-05,0.0,0 STARLINK-5613,1 55752U 23028M   24072.00675290  .00001435  00000-0  12800-3 0  9990,2 55752  69.9975 279.0655 0003519 272.0205  88.0551 14.98337293 57043,6950.17,96.107,574.481,569.59,0.0
55752.0,STARLINK-5613,PAYLOAD,2024-03-12 12:58:47,14.98340514,0.000302,69.9986,277.7177,267.7326,92.3488,4.5568e-05,4.51e-06,0.0,0 STARLINK-5613,1 55752U 23028M   24072.54083179  .00000451  00000-0  45568-4 0  9993,2 55752  69.9986 277.7177 0003020 267.7326  92.3488 14.98340514 57127,6950.16,96.106,574.124,569.926,0.0
55752.0,STARLINK-5613,PAYLOAD,2024-03-13 00:11:43,14.98344684,0.0002972,69.9988,276.5404,284.8347,75.2483,5.3785e-05,5.49e-06,0.0,0 STARLINK-5613,1 55752U 23028M   24073.00814667  .00000549  00000-0  53785-4 0  9997,2 55752  69.9988 276.5404 0002972 284.8347  75.2483 14.98344684 57191,6950.147,96.106,574.078,569.947,0.0
55752.0,STARLINK-5613,PAYLOAD,2024-03-13 06:36:16,14.98338923,0.000291,69.9989,275.8644,290.6726,69.4121,7.0958e-05,7.54e-06,0.0,0 STARLINK-5613,1 55752U 23028M   24073.27518844  .00000754  00000-0  70958-4 0  9993,2 55752  69.9989 275.8644 0002910 290.6726  69.4121 14.98338923 57236,6950.165,96.106,574.053,570.008,0.0
55752.0,STARLINK-5613,PAYLOAD,2024-03-13 22:37:37,14.98337069,0.0002631,69.9982,274.1838,283.0115,77.075,-9.6716e-05,-1.247e-05,0.0,0 STARLINK-5613,1 55752U 23028M   24073.94279003 -.00001247  00000-0 -96716-4 0  9998,2 55752  69.9982 274.1838 0002631 283.0115  77.0750 14.98337069 57338,6950.171,96.107,573.865,570.207,0.0
55752.0,STARLINK-5613,PAYLOAD,2024-03-14 06:38:18,14.98327906,0.0002509,69.9991,273.3394,290.5424,69.5466,-0.00016287,-2.036e-05,0.0,0 STARLINK-5613,1 55752U 23028M   24074.27659754 -.00002036  00000-0 -16287-3 0  9991,2 55752  69.9991 273.3394 0002509 290.5424  69.5466 14.98327906 57380,6950.199,96.107,573.808,570.321,0.0
55752.0,STARLINK-5613,PAYLOAD,2024-03-14 13:02:54,14.98272461,0.0002381,69.9967,272.67,283.3438,76.7456,-0.00067466,-8.121e-05,0.0,0 STARLINK-5613,1 55752U 23028M   24074.54368878 -.00008121  00000-0 -67466-3 0  9991,2 55752  69.9967 272.6700 0002381 283.3438  76.7456 14.98272461 57428,6950.371,96.111,573.891,570.581,0.0
55752.0,STARLINK-5613,PAYLOAD,2024-03-14 21:03:31,14.98320586,0.0002995,69.9974,271.8251,281.8541,78.2282,-0.00014817,-1.86e-05,0.0,0 STARLINK-5613,1 55752U 23028M   24074.87744941 -.00001860  00000-0 -14817-3 0  9991,2 55752  69.9974 271.8251 0002995 281.8541  78.2282 14.98320586 57478,6950.222,96.108,574.169,570.005,0.0
55752.0,STARLINK-5613,PAYLOAD,2024-03-14 22:39:38,14.98332506,0.000302,69.9984,271.6567,293.082,67.002,-1.3378e-05,-2.53e-06,0.0,0 STARLINK-5613,1 55752U 23028M   24074.94420011 -.00000253  00000-0 -13378-4 0  9995,2 55752  69.9984 271.6567 0003020 293.0820  67.0020 14.98332506 57484,6950.185,96.107,574.149,569.951,0.0
55752.0,STARLINK-5613,PAYLOAD,2024-03-15 22:41:39,14.98332548,0.0003566,69.9981,269.1354,260.8774,99.1981,8.0785e-05,8.71e-06,0.0,0 STARLINK-5613,1 55752U 23028M   24075.94559472  .00000871  00000-0  80785-4 0  9990,2 55752  69.9981 269.1354 0003566 260.8774  99.1981 14.98332548 57637,6950.185,96.107,574.528,569.572,0.0
55752.0,STARLINK-5613,PAYLOAD,2024-03-16 14:42:59,14.98314877,0.000316,69.9978,267.4517,278.3415,81.7386,0.00073291,8.659e-05,0.0,0 STARLINK-5613,1 55752U 23028M   24076.61318950  .00008659  00000-0  73291-3 0  9994,2 55752  69.9978 267.4517 0003160 278.3415  81.7386 14.98314877 57733,6950.24,96.108,574.301,569.908,0.0
55752.0,STARLINK-5613,PAYLOAD,2024-03-16 19:31:21,14.9844477,0.0004272,69.9977,266.9465,271.9648,88.1022,-0.0014275,-0.00017137,0.0,0 STARLINK-5613,1 55752U 23028M   24076.81344432 -.00017137  00000-0 -14275-2 0  9999,2 55752  69.9977 266.9465 0004272 271.9648  88.1022 14.98444770 57767,6949.838,96.1,574.672,568.734,0.0
55752.0,STARLINK-5613,PAYLOAD,2024-03-16 22:43:36,14.98482706,0.0004353,69.9971,266.6098,264.2012,95.8651,-0.0020681,-0.00024783,0.0,0 STARLINK-5613,1 55752U 23028M   24076.94694561 -.00024783  00000-0 -20681-2 0  9997,2 55752  69.9971 266.6098 0004353 264.2012  95.8651 14.98482706 57786,6949.721,96.097,574.611,568.56,0.0
55752.0,STARLINK-5613,PAYLOAD,2024-03-17 13:08:52,14.98340172,0.0003155,69.9999,265.0953,256.295,103.7858,-2.4174e-05,-3.82e-06,0.0,0 STARLINK-5613,1 55752U 23028M   24077.54782823 -.00000382  00000-0 -24174-4 0  9995,2 55752  69.9999 265.0953 0003155 256.2950 103.7858 14.98340172 57878,6950.161,96.106,574.219,569.834,0.0
55752.0,STARLINK-5613,PAYLOAD,2024-03-17 14:45:00,14.98336688,0.0003259,69.998,264.9273,273.8972,86.1814,-5.8074e-05,-7.86e-06,0.0,0 STARLINK-5613,1 55752U 23028M   24077.61459201 -.00000786  00000-0 -58074-4 0  9998,2 55752  69.9980 264.9273 0003259 273.8972  86.1814 14.98336688 57889,6950.172,96.107,574.302,569.772,0.0
55752.0,STARLINK-5613,PAYLOAD,2024-03-17 21:09:32,14.98338239,0.0003133,69.998,264.2526,272.1158,87.9642,-3.7055e-05,-5.35e-06,0.0,0 STARLINK-5613,1 55752U 23028M   24077.88162892 -.00000535  00000-0 -37055-4 0  9992,2 55752  69.9980 264.2526 0003133 272.1158  87.9642 14.98338239 57929,6950.167,96.106,574.21,569.855,0.0
55752.0,STARLINK-5613,PAYLOAD,2024-03-18 11:34:45,14.98339286,0.0003076,69.9983,262.738,268.0075,92.0732,-0.00013751,-1.734e-05,0.0,0 STARLINK-5613,1 55752U 23028M   24078.48246599 -.00001734  00000-0 -13751-3 0  9994,2 55752  69.9983 262.7380 0003076 268.0075  92.0732 14.98339286 58012,6950.164,96.106,574.167,569.891,0.0
